FENGYUN 1C DEB          
1 29887U 99025GH  21274.12157986  .00000614  00000-0  17426-3 0  9998
2 29887  98.8893 325.0406 0327107 142.6373 275.4580 14.22117802761145
FENGYUN 1C DEB          
1 29888U 99025GJ  21273.29888585  .00000216  00000-0  93678-4 0  9994
2 29888  99.0601  41.8153 0295019  46.4931 316.0357 14.13386782757880
FENGYUN 1C DEB          
1 29889U 99025GK  21273.95313524  .00000230  00000-0  13991-3 0  9999
2 29889  99.5727 279.2886 0159259 333.3551  82.2216 14.10578396756916
FENGYUN 1C DEB          
1 29890U 99025GL  21273.49263445  .00000678  00000-0  37872-3 0  9996
2 29890  99.5317 270.3428 0020045  56.0343 304.2729 14.14502287757114
FENGYUN 1C DEB          
1 29891U 99025GM  21273.37881541 -.00000196  00000-0 -10623-3 0  9999
2 29891  98.8524 320.1787 0065906 200.8993 171.7839 13.98114286750373
FENGYUN 1C DEB          
1 29892U 99025GN  21274.13038633  .00000933  00000-0  44754-3 0  9990
2 29892  99.1680 359.5827 0273420 297.6236 123.7391 14.03814781749864
FENGYUN 1C DEB          
1 29893U 99025GP  21273.45988490  .00000072  00000-0  97533-4 0  9998
2 29893  98.5049 146.1727 0174772 349.0593 132.5057 13.78510095739952
FENGYUN 1C DEB          
1 29894U 99025GQ  21273.04429434  .00000241  00000-0  25231-3 0  9995
2 29894  99.6418 290.2095 0174098 110.3953 269.8746 13.78412214739171
FENGYUN 1C DEB          
1 29895U 99025GR  21273.89911502  .00001022  00000-0  52071-3 0  9991
2 29895  99.9078 240.9705 0368668 119.6534 299.8501 13.88256785741379
FENGYUN 1C DEB          
1 29896U 99025GS  21273.31341135  .00000297  00000-0  35215-3 0  9992
2 29896  99.5129 181.2689 0245434  76.3613  46.4566 13.63160403731227
FENGYUN 1C DEB          
1 29897U 99025GT  21273.36285024  .00000685  00000-0  83310-3 0  9992
2 29897  98.6338 312.1881 0322819 140.1994 237.6467 13.48963921722003
FENGYUN 1C DEB          
1 29898U 99025GU  21273.51772156  .00001043  00000-0  77178-3 0  9991
2 29898  98.2157 122.0363 0478534 300.0366 125.2902 13.53629579723111
FENGYUN 1C DEB          
1 29899U 99025GV  21273.97181948  .00000056  00000-0  12527-3 0  9995
2 29899  98.6505 271.5878 0354284 331.9708  26.2735 13.36813215717730
FENGYUN 1C DEB          
1 29901U 99025GX  21273.77419594  .00000122  00000-0  21170-3 0  9996
2 29901  98.7437 282.4130 0384242 138.9370  35.3063 13.32019319715000
FENGYUN 1C DEB          
1 29903U 99025GZ  21273.95791560  .00001644  00000-0  38155-3 0  9995
2 29903  99.0132 276.6342 0079614 212.7191 146.9058 14.54635103775520
FENGYUN 1C DEB          
1 29904U 99025HA  21274.07097479  .00000141  00000-0  49709-4 0  9997
2 29904  98.9582 206.2899 0231112 162.2948 198.6463 14.36572127770059
FENGYUN 1C DEB          
1 29906U 99025HC  21274.14881812  .00001103  00000-0  48027-3 0  9999
2 29906  98.7653 343.2170 0049751 344.7198  15.2477 14.25417261761922
FENGYUN 1C DEB          
1 29907U 99025HD  21273.34031826  .00000618  00000-0  41761-3 0  9991
2 29907  99.2224 301.2436 0093876 190.2028 182.4792 14.02155563750378
FENGYUN 1C DEB          
1 29909U 99025HF  21274.15659212  .00001307  00000-0  52450-3 0  9991
2 29909  98.6975 345.1290 0060063 252.8751 169.4258 14.28974080763738
FENGYUN 1C DEB          
1 29911U 99025HH  21273.41067645  .00000371  00000-0  22098-3 0  9990
2 29911  98.8712 316.7513 0030618 202.6491 171.2059 14.13171479757256
FENGYUN 1C DEB          
1 29912U 99025HJ  21274.16083962  .00001003  00000-0  45244-3 0  9995
2 29912  98.8118 338.2042 0052741  26.9573 359.9916 14.23710161761229
FENGYUN 1C DEB          
1 29913U 99025HK  21273.33173824 -.00000048  00000-0 -26999-5 0  9999
2 29913  98.8301 295.4046 0063511 260.4939 168.7314 14.05174699754028
FENGYUN 1C DEB          
1 29914U 99025HL  21273.06176903 -.00000125  00000-0 -52236-4 0  9999
2 29914  99.0362 309.5062 0036810  63.0635 326.6700 14.02201245752731
FENGYUN 1C DEB          
1 29915U 99025HM  21274.10676945  .00012048  00000-0  10541-2 0  9993
2 29915  99.0344 146.6662 0053012  79.8602 280.8589 14.95829713786191
FENGYUN 1C DEB          
1 29916U 99025HN  21273.53700955  .00000296  00000-0  38612-3 0  9991
2 29916  99.3384   1.6747 0277190 202.7102 171.0515 13.54669733726732
FENGYUN 1C DEB          
1 29917U 99025HP  21274.11316066  .00000453  00000-0  50240-3 0  9999
2 29917  98.8941 232.3292 0232230 191.1074 232.4409 13.65424418731932
FENGYUN 1C DEB          
1 29918U 99025HQ  21273.59012080  .00000792  00000-0  39056-3 0  9998
2 29918  98.9659 311.4301 0017450  78.5482  52.5197 14.20383940759500
FENGYUN 1C DEB          
1 29919U 99025HR  21273.52550905  .00000033  00000-0  59953-4 0  9992
2 29919  98.5554 191.1692 0138279 216.7062 319.7114 13.84177592743042
FENGYUN 1C DEB          
1 29920U 99025HS  21273.28998729  .00000729  00000-0  51017-3 0  9991
2 29920  98.4372 224.2626 0136932 271.9469  86.6018 13.96928658748211
FENGYUN 1C DEB          
1 29921U 99025HT  21273.04927920 -.00000074  00000-0 -19031-4 0  9997
2 29921  98.8789 300.2028 0047749  51.2825 338.6791 14.04190793753238
FENGYUN 1C DEB          
1 29922U 99025HU  21273.07164221  .00000327  00000-0  25624-3 0  9991
2 29922  99.3370 299.9407 0093502 241.0277 118.1487 13.97441947749996
FENGYUN 1C DEB          
1 29923U 99025HV  21274.08278132  .00000295  00000-0  19073-3 0  9996
2 29923  98.7922 302.9298 0018640 204.0682 217.5286 14.10166621756498
FENGYUN 1C DEB          
1 29924U 99025HW  21274.02927752  .00000134  00000-0  10353-3 0  9994
2 29924  98.8701 304.3726 0025987 262.7390 155.9498 14.08308587756289
FENGYUN 1C DEB          
1 29925U 99025HX  21273.33023841  .00004057  00000-0  59389-3 0  9994
2 29925  99.0188  37.1279 0065324 336.7796  50.9462 14.74869189780631
FENGYUN 1C DEB          
1 29926U 99025HY  21273.37951785  .00000215  00000-0  72235-4 0  9994
2 29926  98.3420 311.6989 0262759 178.9791 195.2408 14.28947314766423
FENGYUN 1C DEB          
1 29927U 99025HZ  21273.29686775  .00001370  00000-0  52077-3 0  9994
2 29927  99.0650 169.4905 0033618  86.7928  30.2311 14.32414322764727
FENGYUN 1C DEB          
1 29928U 99025JA  21273.50145730  .00000140  00000-0  15296-3 0  9996
2 29928  99.5189 241.4280 0147444 209.2370 280.3012 13.84443381742515
FENGYUN 1C DEB          
1 29929U 99025JB  21273.24557964  .00000754  00000-0  56733-3 0  9996
2 29929  98.5425 273.3367 0144286 119.7903 305.0550 13.92261902745483
FENGYUN 1C DEB          
1 29930U 99025JC  21273.42907840  .00000123  00000-0  70953-4 0  9991
2 29930  99.1679  86.4052 0168965  97.0473 285.8131 14.18754100761223
FENGYUN 1C DEB          
1 29931U 99025JD  21273.39682955  .00000393  00000-0  28143-3 0  9997
2 29931  99.0613 311.3307 0032424  42.5519 332.0266 14.02775496752947
FENGYUN 1C DEB          
1 29932U 99025JE  21273.07725535  .00000148  00000-0  99051-4 0  9990
2 29932  98.7541 303.0022 0039973 140.5374 244.4860 14.14307103758761
FENGYUN 1C DEB          
1 29933U 99025JF  21274.09760198  .00001558  00000-0  60540-3 0  9994
2 29933  98.8227 311.6532 0007462 239.4991 176.3434 14.31338448764005
FENGYUN 1C DEB          
1 29934U 99025JG  21273.38971779  .00000484  00000-0  13327-3 0  9993
2 29934  98.8358 202.7856 0130202 215.4320 143.8170 14.47065047774814
FENGYUN 1C DEB          
1 29935U 99025JH  21273.33122747  .00000080  00000-0  58740-4 0  9993
2 29935  98.5085  27.5650 0151786 296.9610 125.1349 14.13019847758655
FENGYUN 1C DEB          
1 29936U 99025JJ  21273.53622154  .00000062  00000-0  36114-4 0  9994
2 29936  98.5911  11.8464 0118371  43.4408 317.6029 14.33104487769467
FENGYUN 1C DEB          
1 29937U 99025JK  21273.43840580 -.00000173  00000-0 -81477-4 0  9996
2 29937  98.9769 307.5166 0031865 345.4960  68.0592 14.03959560754044
FENGYUN 1C DEB          
1 29938U 99025JL  21273.51920666  .00000083  00000-0  75997-4 0  9998
2 29938  98.7767 288.5415 0033106 307.1374 206.5652 14.06313883754872
FENGYUN 1C DEB          
1 29939U 99025JM  21273.57129600  .00000006  00000-0  26532-4 0  9990
2 29939  98.7557 294.9742 0066831 178.0552 296.2878 14.11597553758131
FENGYUN 1C DEB          
1 29940U 99025JN  21273.59002296  .00000387  00000-0  22009-3 0  9991
2 29940  98.7320 304.0929 0079056 174.1350 314.3794 14.13839063757985
FENGYUN 1C DEB          
1 29941U 99025JP  21273.47737844  .00003429  00000-0  66624-3 0  9994
2 29941  98.9048 251.5409 0067575 118.3300   2.8405 14.62447316776756
FENGYUN 1C DEB          
1 29942U 99025JQ  21273.38150615  .00000401  00000-0  19204-3 0  9999
2 29942  98.8079 325.0313 0055320  62.5212 298.1575 14.23694617759965
FENGYUN 1C DEB          
1 29943U 99025JR  21273.33575500 -.00000097  00000-0 -30358-4 0  9996
2 29943  98.8318 300.5310 0034915 244.0735 181.7204 14.09258925756922
FENGYUN 1C DEB          
1 29944U 99025JS  21273.88478194  .00000906  00000-0  13438-3 0  9994
2 29944  98.9973  23.2247 0250281 301.2836 177.6713 14.59288251779376
FENGYUN 1C DEB          
1 29945U 99025JT  21273.34218931  .00000076  00000-0  74742-4 0  9991
2 29945  98.9725 308.6689 0030676 333.8564  88.9243 14.04752818754308
FENGYUN 1C DEB          
1 29946U 99025JU  21273.52293069  .00000122  00000-0  97101-4 0  9993
2 29946  98.7774 291.5701 0082196 344.7241 140.8100 14.06413640754795
FENGYUN 1C DEB          
1 29947U 99025JV  21273.57087450  .00000376  00000-0  27352-3 0  9995
2 29947  99.0331 313.1972 0041410  66.3337  63.1175 14.01973356752615
FENGYUN 1C DEB          
1 29948U 99025JW  21273.52663153 -.00000192  00000-0 -89619-4 0  9994
2 29948  98.7721 286.1959 0084869 220.7182 266.5569 14.05127944754243
FENGYUN 1C DEB          
1 29949U 99025JX  21273.32504838  .00000127  00000-0  10316-3 0  9990
2 29949  98.9129 305.0240 0023179 293.5865 127.8729 14.06468214755365
FENGYUN 1C DEB          
1 29950U 99025JY  21273.34965458  .00000067  00000-0  63669-4 0  9996
2 29950  98.9400 311.0316 0032510 252.4667 170.8598 14.09432005756717
